[
    {
        "Altitude(m)": 717878.2028890966,
        "Argument of Periapsis(deg)": 0.009112096949301655,
        "Eccentricity": 0.0,
        "Inclination(deg)": 45.0,
        "Latitude(deg)": -45.14446502820684,
        "Longitude(deg)": -144.12582478162372,
        "Mean Anomaly(deg)": 271.0447733179847,
        "RAAN(deg)": 44.991398446833436,
        "Satellite Name": "Constellation 1 214",
        "Satellite Number": 214,
        "Semi-Major Axis(m)": 7083131.272910544,
        "Time(s)": 152
    },
    {
        "Altitude(m)": 717877.7243551231,
        "Argument of Periapsis(deg)": 0.009172044955547059,
        "Eccentricity": 0.0,
        "Inclination(deg)": 45.0,
        "Latitude(deg)": -45.143320167465696,
        "Longitude(deg)": -144.04432656750288,
        "Mean Anomaly(deg)": 271.1054744582346,
        "RAAN(deg)": 44.99134185766786,
        "Satellite Name": "Constellation 1 214",
        "Satellite Number": 214,
        "Semi-Major Axis(m)": 7083131.272910544,
        "Time(s)": 153
    },
    {
        "Altitude(m)": 717877.2194307573,
        "Argument of Periapsis(deg)": 0.009231992961792466,
        "Eccentricity": 0.0,
        "Inclination(deg)": 45.0,
        "Latitude(deg)": -45.14211116846572,
        "Longitude(deg)": -143.96283186827938,
        "Mean Anomaly(deg)": 271.1661755984845,
        "RAAN(deg)": 44.991285268502295,
        "Satellite Name": "Constellation 1 214",
        "Satellite Number": 214,
        "Semi-Major Axis(m)": 7083131.272910544,
        "Time(s)": 154
    },
    {
        "Altitude(m)": 717876.6881178347,
        "Argument of Periapsis(deg)": 0.009291940968037872,
        "Eccentricity": 0.0,
        "Inclination(deg)": 45.0,
        "Latitude(deg)": -45.14083803655748,
        "Longitude(deg)": -143.88134087518998,
        "Mean Anomaly(deg)": 271.22687673873435,
        "RAAN(deg)": 44.99122867933673,
        "Satellite Name": "Constellation 1 214",
        "Satellite Number": 214,
        "Semi-Major Axis(m)": 7083131.272910544,
        "Time(s)": 155
    },
    {
        "Altitude(m)": 717876.1304183034,
        "Argument of Periapsis(deg)": 0.009351888974283276,
        "Eccentricity": 0.0,
        "Inclination(deg)": 45.0,
        "Latitude(deg)": -45.13950077737465,
        "Longitude(deg)": -143.79985394750244,
        "Mean Anomaly(deg)": 271.2875778789843,
        "RAAN(deg)": 44.99117209017116,
        "Satellite Name": "Constellation 1 214",
        "Satellite Number": 214,
        "Semi-Major Axis(m)": 7083131.272910544,
        "Time(s)": 156
    },
    {
        "Altitude(m)": 717875.5463342057,
        "Argument of Periapsis(deg)": 0.00941183698052868,
        "Eccentricity": 0.0,
        "Inclination(deg)": 45.0,
        "Latitude(deg)": -45.13809939683473,
        "Longitude(deg)": -143.7183709401238,
        "Mean Anomaly(deg)": 271.34827901923416,
        "RAAN(deg)": 44.99111550100559,
        "Satellite Name": "Constellation 1 214",
        "Satellite Number": 214,
        "Semi-Major Axis(m)": 7083131.272910544,
        "Time(s)": 157
    },
    {
        "Altitude(m)": 717874.9358676794,
        "Argument of Periapsis(deg)": 0.009471784986774088,
        "Eccentricity": 0.0,
        "Inclination(deg)": 45.0,
        "Latitude(deg)": -45.13663390113746,
        "Longitude(deg)": -143.6368922121788,
        "Mean Anomaly(deg)": 271.40898015948403,
        "RAAN(deg)": 44.99105891184002,
        "Satellite Name": "Constellation 1 214",
        "Satellite Number": 214,
        "Semi-Major Axis(m)": 7083131.272910544,
        "Time(s)": 158
    },
    {
        "Altitude(m)": 717874.2990209558,
        "Argument of Periapsis(deg)": 0.009531732993019492,
        "Eccentricity": 0.0,
        "Inclination(deg)": 45.0,
        "Latitude(deg)": -45.13510429676567,
        "Longitude(deg)": -143.55541795461886,
        "Mean Anomaly(deg)": 271.46968129973396,
        "RAAN(deg)": 44.99100232267445,
        "Satellite Name": "Constellation 1 214",
        "Satellite Number": 214,
        "Semi-Major Axis(m)": 7083131.272910544,
        "Time(s)": 159
    },
    {
        "Altitude(m)": 717873.6357963721,
        "Argument of Periapsis(deg)": 0.009591680999264898,
        "Eccentricity": 0.0,
        "Inclination(deg)": 45.0,
        "Latitude(deg)": -45.133510590484946,
        "Longitude(deg)": -143.47394835831545,
        "Mean Anomaly(deg)": 271.5303824399839,
        "RAAN(deg)": 44.99094573350888,
        "Satellite Name": "Constellation 1 214",
        "Satellite Number": 214,
        "Semi-Major Axis(m)": 7083131.272910544,
        "Time(s)": 160
    },
    {
        "Altitude(m)": 717872.9461963568,
        "Argument of Periapsis(deg)": 0.009651629005510304,
        "Eccentricity": 0.0,
        "Inclination(deg)": 45.0,
        "Latitude(deg)": -45.13185278934343,
        "Longitude(deg)": -143.39248361405694,
        "Mean Anomaly(deg)": 271.59108358023377,
        "RAAN(deg)": 44.990889144343306,
        "Satellite Name": "Constellation 1 214",
        "Satellite Number": 214,
        "Semi-Major Axis(m)": 7083131.272910544,
        "Time(s)": 161
    },
    {
        "Altitude(m)": 717872.2302234387,
        "Argument of Periapsis(deg)": 0.00971157701175571,
        "Eccentricity": 0.0,
        "Inclination(deg)": 45.0,
        "Latitude(deg)": -45.13013090067176,
        "Longitude(deg)": -143.31102391254458,
        "Mean Anomaly(deg)": 271.65178472048365,
        "RAAN(deg)": 44.99083255517775,
        "Satellite Name": "Constellation 1 214",
        "Satellite Number": 214,
        "Semi-Major Axis(m)": 7083131.272910544,
        "Time(s)": 162
    },
    {
        "Altitude(m)": 717871.4878802408,
        "Argument of Periapsis(deg)": 0.009771525018001118,
        "Eccentricity": 0.0,
        "Inclination(deg)": 45.0,
        "Latitude(deg)": -45.12834493208254,
        "Longitude(deg)": -143.22956961248735,
        "Mean Anomaly(deg)": 271.7124858607335,
        "RAAN(deg)": 44.99077596601217,
        "Satellite Name": "Constellation 1 214",
        "Satellite Number": 214,
        "Semi-Major Axis(m)": 7083131.272910544,
        "Time(s)": 163
    },
    {
        "Altitude(m)": 717870.7191694911,
        "Argument of Periapsis(deg)": 0.00983147302424652,
        "Eccentricity": 0.0,
        "Inclination(deg)": 45.0,
        "Latitude(deg)": -45.126494891471275,
        "Longitude(deg)": -143.14812056820855,
        "Mean Anomaly(deg)": 271.77318700098346,
        "RAAN(deg)": 44.9907193768466,
        "Satellite Name": "Constellation 1 214",
        "Satellite Number": 214,
        "Semi-Major Axis(m)": 7083131.272910544,
        "Time(s)": 164
    },
    {
        "Altitude(m)": 717869.9240940034,
        "Argument of Periapsis(deg)": 0.009891421030491928,
        "Eccentricity": 0.0,
        "Inclination(deg)": 45.0,
        "Latitude(deg)": -45.124580787014665,
        "Longitude(deg)": -143.06667713822674,
        "Mean Anomaly(deg)": 271.8338881412334,
        "RAAN(deg)": 44.99066278768103,
        "Satellite Name": "Constellation 1 214",
        "Satellite Number": 214,
        "Semi-Major Axis(m)": 7083131.272910544,
        "Time(s)": 165
    },
    {
        "Altitude(m)": 717869.1026566945,
        "Argument of Periapsis(deg)": 0.009951369036737332,
        "Eccentricity": 0.0,
        "Inclination(deg)": 45.0,
        "Latitude(deg)": -45.12260262717141,
        "Longitude(deg)": -142.98523951286288,
        "Mean Anomaly(deg)": 271.89458928148326,
        "RAAN(deg)": 44.990606198515465,
        "Satellite Name": "Constellation 1 214",
        "Satellite Number": 214,
        "Semi-Major Axis(m)": 7083131.272910544,
        "Time(s)": 166
    },
    {
        "Altitude(m)": 717868.2548605866,
        "Argument of Periapsis(deg)": 0.010011317042982738,
        "Eccentricity": 0.0,
        "Inclination(deg)": 45.0,
        "Latitude(deg)": -45.12056042068185,
        "Longitude(deg)": -142.9038078823344,
        "Mean Anomaly(deg)": 271.95529042173314,
        "RAAN(deg)": 44.99054960934989,
        "Satellite Name": "Constellation 1 214",
        "Satellite Number": 214,
        "Semi-Major Axis(m)": 7083131.272910544,
        "Time(s)": 167
    },
    {
        "Altitude(m)": 717867.3807087876,
        "Argument of Periapsis(deg)": 0.010071265049228144,
        "Eccentricity": 0.0,
        "Inclination(deg)": 45.0,
        "Latitude(deg)": -45.118454176567724,
        "Longitude(deg)": -142.8223824367516,
        "Mean Anomaly(deg)": 272.01599156198307,
        "RAAN(deg)": 44.990493020184324,
        "Satellite Name": "Constellation 1 214",
        "Satellite Number": 214,
        "Semi-Major Axis(m)": 7083131.272910544,
        "Time(s)": 168
    },
    {
        "Altitude(m)": 717866.4802045034,
        "Argument of Periapsis(deg)": 0.01013121305547355,
        "Eccentricity": 0.0,
        "Inclination(deg)": 45.0,
        "Latitude(deg)": -45.11628390413198,
        "Longitude(deg)": -142.74096336611495,
        "Mean Anomaly(deg)": 272.07669270223295,
        "RAAN(deg)": 44.99043643101875,
        "Satellite Name": "Constellation 1 214",
        "Satellite Number": 214,
        "Semi-Major Axis(m)": 7083131.272910544,
        "Time(s)": 169
    },
    {
        "Altitude(m)": 717865.5533510463,
        "Argument of Periapsis(deg)": 0.010191161061718957,
        "Eccentricity": 0.0,
        "Inclination(deg)": 45.0,
        "Latitude(deg)": -45.114049612958574,
        "Longitude(deg)": -142.65955086031053,
        "Mean Anomaly(deg)": 272.1373938424828,
        "RAAN(deg)": 44.99037984185318,
        "Satellite Name": "Constellation 1 214",
        "Satellite Number": 214,
        "Semi-Major Axis(m)": 7083131.272910544,
        "Time(s)": 170
    }
]